{
    "CCSDS_OMM_VERS": "3.0",
    "COMMENT": "GENERATED VIA SPACE-TRACK.ORG API",
    "CREATION_DATE": "2025-11-24T07:26:19",
    "ORIGINATOR": "18 SPCS",
    "OBJECT_NAME": "BEIDOU 3M16",
    "OBJECT_ID": "2018-078B",
    "CENTER_NAME": "EARTH",
    "REF_FRAME": "TEME",
    "TIME_SYSTEM": "UTC",
    "MEAN_ELEMENT_THEORY": "SGP4",
    "EPOCH": "2025-11-24T00:50:00.117312",
    "MEAN_MOTION": "1.86232249",
    "ECCENTRICITY": "0.00034020",
    "INCLINATION": "54.2750",
    "RA_OF_ASC_NODE": "307.1763",
    "ARG_OF_PERICENTER": "16.0748",
    "MEAN_ANOMALY": "343.9300",
    "EPHEMERIS_TYPE": "0",
    "CLASSIFICATION_TYPE": "U",
    "NORAD_CAT_ID": "43648",
    "ELEMENT_SET_NO": "999",
    "REV_AT_EPOCH": "4835",
    "BSTAR": "0.00000000000000",
    "MEAN_MOTION_DOT": "-0.00000048",
    "MEAN_MOTION_DDOT": "0.0000000000000",
    "SEMIMAJOR_AXIS": "27906.064",
    "PERIOD": "773.228",
    "APOAPSIS": "21537.422",
    "PERIAPSIS": "21518.435",
    "OBJECT_TYPE": "PAYLOAD",
    "RCS_SIZE": "LARGE",
    "COUNTRY_CODE": "PRC",
    "LAUNCH_DATE": "2018-10-15",
    "SITE": "XSC",
    "DECAY_DATE": null,
    "FILE": "4897000",
    "GP_ID": "303367341",
    "TLE_LINE0": "0 BEIDOU 3M16",
    "TLE_LINE1": "1 43648U 18078B   25328.03472358 -.00000048  00000-0  00000+0 0  9993",
    "TLE_LINE2": "2 43648  54.2750 307.1763 0003402  16.0748 343.9300  1.86232249 48351"
}